start=new Date('2023-04-28T00:00:00.000Z').valueOf();
sats=[{"OBJECT_TYPE":"PAYLOAD","MEAN_ANOMALY":"279.3037","REV_AT_EPOCH":"2200","LAUNCH_DATE":"2022-12-17","SITE":"AFETR","CLASSIFICATION_TYPE":"U","TIME_SYSTEM":"UTC","INCLINATION":"53.2200","SEMIMAJOR_AXIS":"6917.830","RA_OF_ASC_NODE":"50.9408","GP_ID":"230840276","DECAY_DATE":null,"PERIAPSIS":"538.801","RCS_SIZE":"LARGE","MEAN_MOTION_DDOT":"0.0000000000000","EPHEMERIS_TYPE":"0","ECCENTRICITY":"0.00012920","NORAD_CAT_ID":"54809","BSTAR":"0.00011028000000","ELEMENT_SET_NO":"999","MEAN_ELEMENT_THEORY":"SGP4","FILE":"3894751","MEAN_MOTION_DOT":"0.00001468","COUNTRY_CODE":"US","OBJECT_NAME":"STARLINK-5414","TLE_LINE1":"1 54809U 22175BD  23117.22080922  .00001468  00000-0  11028-3 0  9996","REF_FRAME":"TEME","TLE_LINE2":"2 54809  53.2200  50.9408 0001292  80.8101 279.3037 15.08856609 22001","OBJECT_ID":"2022-175BD","EPOCH":"2023-04-27T05:17:57.916608","PERIOD":"95.437","ARG_OF_PERICENTER":"80.8101","APOAPSIS":"540.588","MEAN_MOTION":"15.08856609","CENTER_NAME":"EARTH"},{"SEMIMAJOR_AXIS":"6917.884","RA_OF_ASC_NODE":"46.5649","DECAY_DATE":null,"GP_ID":"230840025","RCS_SIZE":"LARGE","PERIAPSIS":"538.778","MEAN_MOTION_DDOT":"0.0000000000000","OBJECT_TYPE":"PAYLOAD","MEAN_ANOMALY":"246.0005","REV_AT_EPOCH":"2206","LAUNCH_DATE":"2022-12-17","CLASSIFICATION_TYPE":"U","SITE":"AFETR","INCLINATION":"53.2192","TIME_SYSTEM":"UTC","TLE_LINE1":"1 54810U 22175BE  23117.20943358 -.00002453  00000-0 -13610-3 0  9993","TLE_LINE2":"2 54810  53.2192  46.5649 0001404 114.1134 246.0005 15.08838679 22062","REF_FRAME":"TEME","OBJECT_ID":"2022-175BE","PERIOD":"95.438","ARG_OF_PERICENTER":"114.1134","EPOCH":"2023-04-27T05:01:35.061312","APOAPSIS":"540.721","MEAN_MOTION":"15.08838679","CENTER_NAME":"EARTH","EPHEMERIS_TYPE":"0","BSTAR":"-0.00013610000000","ELEMENT_SET_NO":"999","NORAD_CAT_ID":"54810","ECCENTRICITY":"0.00014040","MEAN_ELEMENT_THEORY":"SGP4","MEAN_MOTION_DOT":"-0.00002453","FILE":"3894751","COUNTRY_CODE":"US","OBJECT_NAME":"STARLINK-5408"},{"APOAPSIS":"540.756","PERIOD":"95.438","EPOCH":"2023-04-27T05:47:50.897184","ARG_OF_PERICENTER":"101.9018","CENTER_NAME":"EARTH","MEAN_MOTION":"15.08828587","REF_FRAME":"TEME","TLE_LINE2":"2 54811  53.2183  46.0571 0001411 101.9018 258.2132 15.08828587 22079","TLE_LINE1":"1 54811U 22175BF  23117.24156131 -.00002079  00000-0 -11263-3 0  9999","OBJECT_ID":"2022-175BF","COUNTRY_CODE":"US","FILE":"3894751","MEAN_MOTION_DOT":"-0.00002079","OBJECT_NAME":"STARLINK-5424","NORAD_CAT_ID":"54811","ECCENTRICITY":"0.00014110","BSTAR":"-0.00011263000000","ELEMENT_SET_NO":"999","EPHEMERIS_TYPE":"0","MEAN_ELEMENT_THEORY":"SGP4","GP_ID":"230838775","DECAY_DATE":null,"MEAN_MOTION_DDOT":"0.0000000000000","PERIAPSIS":"538.804","RCS_SIZE":"LARGE","SEMIMAJOR_AXIS":"6917.915","RA_OF_ASC_NODE":"46.0571","SITE":"AFETR","CLASSIFICATION_TYPE":"U","INCLINATION":"53.2183","TIME_SYSTEM":"UTC","MEAN_ANOMALY":"258.2132","REV_AT_EPOCH":"2207","OBJECT_TYPE":"PAYLOAD","LAUNCH_DATE":"2022-12-17"},{"RA_OF_ASC_NODE":"64.9681","SEMIMAJOR_AXIS":"6937.124","MEAN_MOTION_DDOT":"0.0000000000000","RCS_SIZE":"LARGE","PERIAPSIS":"557.911","DECAY_DATE":null,"GP_ID":"230840525","LAUNCH_DATE":"2022-12-28","MEAN_ANOMALY":"92.8010","REV_AT_EPOCH":"1939","OBJECT_TYPE":"PAYLOAD","TIME_SYSTEM":"UTC","INCLINATION":"43.0043","CLASSIFICATION_TYPE":"U","SITE":"AFETR","OBJECT_ID":"2022-177A","TLE_LINE2":"2 54820  43.0043  64.9681 0001554 267.2654  92.8010 15.02565985 19394","REF_FRAME":"TEME","TLE_LINE1":"1 54820U 22177A   23117.27455897 -.00008223  00000-0 -59384-3 0  9998","CENTER_NAME":"EARTH","MEAN_MOTION":"15.02565985","APOAPSIS":"560.067","ARG_OF_PERICENTER":"267.2654","PERIOD":"95.836","EPOCH":"2023-04-27T06:35:21.895008","MEAN_ELEMENT_THEORY":"SGP4","BSTAR":"-0.00059384000000","ELEMENT_SET_NO":"999","ECCENTRICITY":"0.00015540","NORAD_CAT_ID":"54820","EPHEMERIS_TYPE":"0","OBJECT_NAME":"STARLINK-5382","COUNTRY_CODE":"US","MEAN_MOTION_DOT":"-0.00008223","FILE":"3894751"},{"MEAN_ELEMENT_THEORY":"SGP4","ECCENTRICITY":"0.00015290","NORAD_CAT_ID":"54821","ELEMENT_SET_NO":"999","BSTAR":"-0.00002582900000","EPHEMERIS_TYPE":"0","OBJECT_NAME":"STARLINK-5385","COUNTRY_CODE":"US","FILE":"3894751","MEAN_MOTION_DOT":"-0.00000553","OBJECT_ID":"2022-177B","REF_FRAME":"TEME","TLE_LINE2":"2 54821  43.0047  64.9507 0001529 280.8369  79.2302 15.02547149 19397","TLE_LINE1":"1 54821U 22177B   23117.27234788 -.00000553  00000-0 -25829-4 0  9999","CENTER_NAME":"EARTH","MEAN_MOTION":"15.02547149","APOAPSIS":"560.108","EPOCH":"2023-04-27T06:32:10.856832","PERIOD":"95.837","ARG_OF_PERICENTER":"280.8369","LAUNCH_DATE":"2022-12-28","REV_AT_EPOCH":"1939","MEAN_ANOMALY":"79.2302","OBJECT_TYPE":"PAYLOAD","INCLINATION":"43.0047","TIME_SYSTEM":"UTC","SITE":"AFETR","CLASSIFICATION_TYPE":"U","RA_OF_ASC_NODE":"64.9507","SEMIMAJOR_AXIS":"6937.182","MEAN_MOTION_DDOT":"0.0000000000000","PERIAPSIS":"557.987","RCS_SIZE":"LARGE","GP_ID":"230839275","DECAY_DATE":null},{"REV_AT_EPOCH":"1840","MEAN_ANOMALY":"79.5241","OBJECT_TYPE":"PAYLOAD","LAUNCH_DATE":"2022-12-28","CLASSIFICATION_TYPE":"U","SITE":"AFETR","INCLINATION":"43.0031","TIME_SYSTEM":"UTC","SEMIMAJOR_AXIS":"6937.320","RA_OF_ASC_NODE":"65.1947","DECAY_DATE":null,"GP_ID":"230808899","MEAN_MOTION_DDOT":"0.0000000000000","RCS_SIZE":"LARGE","PERIAPSIS":"558.709","BSTAR":"0.00000125940000","ELEMENT_SET_NO":"999","NORAD_CAT_ID":"54822","ECCENTRICITY":"0.00006870","EPHEMERIS_TYPE":"0","MEAN_ELEMENT_THEORY":"SGP4","COUNTRY_CODE":"US","MEAN_MOTION_DOT":"-0.00000186","FILE":"3894501","OBJECT_NAME":"STARLINK-5101","TLE_LINE2":"2 54822  43.0031  65.1947 0000687 280.5524  79.5241 15.02502292 18402","REF_FRAME":"TEME","TLE_LINE1":"1 54822U 22177C   23117.19036344 -.00000186  00000-0  12594-5 0  9996","OBJECT_ID":"2022-177C","APOAPSIS":"559.662","PERIOD":"95.840","ARG_OF_PERICENTER":"280.5524","EPOCH":"2023-04-27T04:34:07.401216","CENTER_NAME":"EARTH","MEAN_MOTION":"15.02502292"},{"RCS_SIZE":"LARGE","PERIAPSIS":"558.141","MEAN_MOTION_DDOT":"0.0000000000000","DECAY_DATE":null,"GP_ID":"230840277","RA_OF_ASC_NODE":"65.2937","SEMIMAJOR_AXIS":"6937.219","TIME_SYSTEM":"UTC","INCLINATION":"43.0037","CLASSIFICATION_TYPE":"U","SITE":"AFETR","LAUNCH_DATE":"2022-12-28","OBJECT_TYPE":"PAYLOAD","REV_AT_EPOCH":"1938","MEAN_ANOMALY":"83.5130","MEAN_MOTION":"15.02535139","CENTER_NAME":"EARTH","PERIOD":"95.838","ARG_OF_PERICENTER":"276.5558","EPOCH":"2023-04-27T04:53:15.760032","APOAPSIS":"560.027","OBJECT_ID":"2022-177D","TLE_LINE1":"1 54823U 22177D   23117.20365463 -.00000249  00000-0 -33642-5 0  9994","TLE_LINE2":"2 54823  43.0037  65.2937 0001359 276.5558  83.5130 15.02535139 19384","REF_FRAME":"TEME","OBJECT_NAME":"STARLINK-5106","MEAN_MOTION_DOT":"-0.00000249","FILE":"3894751","COUNTRY_CODE":"US","MEAN_ELEMENT_THEORY":"SGP4","EPHEMERIS_TYPE":"0","BSTAR":"-0.00000336420000","ELEMENT_SET_NO":"999","ECCENTRICITY":"0.00013590","NORAD_CAT_ID":"54823"},{"EPHEMERIS_TYPE":"0","ECCENTRICITY":"0.00013760","NORAD_CAT_ID":"54824","BSTAR":"-0.00045601000000","ELEMENT_SET_NO":"999","MEAN_ELEMENT_THEORY":"SGP4","FILE":"3894751","MEAN_MOTION_DOT":"-0.00006362","COUNTRY_CODE":"US","OBJECT_NAME":"STARLINK-4643","TLE_LINE1":"1 54824U 22177E   23117.26679622 -.00006362  00000-0 -45601-3 0  9994","REF_FRAME":"TEME","TLE_LINE2":"2 54824  43.0027  64.9099 0001376 254.9245 105.1446 15.02559662 19390","OBJECT_ID":"2022-177E","ARG_OF_PERICENTER":"254.9245","PERIOD":"95.836","EPOCH":"2023-04-27T06:24:11.193408","APOAPSIS":"559.963","MEAN_MOTION":"15.02559662","CENTER_NAME":"EARTH","OBJECT_TYPE":"PAYLOAD","REV_AT_EPOCH":"1939","MEAN_ANOMALY":"105.1446","LAUNCH_DATE":"2022-12-28","SITE":"AFETR","CLASSIFICATION_TYPE":"U","TIME_SYSTEM":"UTC","INCLINATION":"43.0027","SEMIMAJOR_AXIS":"6937.144","RA_OF_ASC_NODE":"64.9099","GP_ID":"230840026","DECAY_DATE":null,"PERIAPSIS":"558.054","RCS_SIZE":"LARGE","MEAN_MOTION_DDOT":"0.0000000000000"},{"OBJECT_ID":"2022-177F","TLE_LINE1":"1 54825U 22177F   23117.85956063  .00006737  00000-0  51331-3 0  9998","TLE_LINE2":"2 54825  43.0050  61.6158 0001540 263.6492  96.4175 15.02535114 18500","REF_FRAME":"TEME","MEAN_MOTION":"15.02535114","CENTER_NAME":"EARTH","PERIOD":"95.838","EPOCH":"2023-04-27T20:37:46.038432","ARG_OF_PERICENTER":"263.6492","APOAPSIS":"560.153","MEAN_ELEMENT_THEORY":"SGP4","EPHEMERIS_TYPE":"0","ELEMENT_SET_NO":"999","BSTAR":"0.00051331000000","NORAD_CAT_ID":"54825","ECCENTRICITY":"0.00015400","OBJECT_NAME":"STARLINK-4801","MEAN_MOTION_DOT":"0.00006737","FILE":"3895051","COUNTRY_CODE":"US","RA_OF_ASC_NODE":"61.6158","SEMIMAJOR_AXIS":"6937.219","RCS_SIZE":"LARGE","PERIAPSIS":"558.016","MEAN_MOTION_DDOT":"0.0000000000000","DECAY_DATE":null,"GP_ID":"230848049","LAUNCH_DATE":"2022-12-28","OBJECT_TYPE":"PAYLOAD","REV_AT_EPOCH":"1850","MEAN_ANOMALY":"96.4175","INCLINATION":"43.0050","TIME_SYSTEM":"UTC","CLASSIFICATION_TYPE":"U","SITE":"AFETR"},{"PERIAPSIS":"557.970","RCS_SIZE":"LARGE","MEAN_MOTION_DDOT":"0.0000000000000","GP_ID":"230809385","DECAY_DATE":null,"RA_OF_ASC_NODE":"65.2111","SEMIMAJOR_AXIS":"6937.218","TIME_SYSTEM":"UTC","INCLINATION":"43.0060","SITE":"AFETR","CLASSIFICATION_TYPE":"U","LAUNCH_DATE":"2022-12-28","OBJECT_TYPE":"PAYLOAD","REV_AT_EPOCH":"1840","MEAN_ANOMALY":"88.0563","MEAN_MOTION":"15.02535451","CENTER_NAME":"EARTH","PERIOD":"95.838","EPOCH":"2023-04-27T04:37:16.609440","ARG_OF_PERICENTER":"272.0096","APOAPSIS":"560.197","OBJECT_ID":"2022-177G","TLE_LINE1":"1 54826U 22177G   23117.19255335 -.00000573  00000-0 -27301-4 0  9995","REF_FRAME":"TEME","TLE_LINE2":"2 54826  43.0060  65.2111 0001605 272.0096  88.0563 15.02535451 18408","OBJECT_NAME":"STARLINK-5107","FILE":"3894504","MEAN_MOTION_DOT":"-0.00000573","COUNTRY_CODE":"US","MEAN_ELEMENT_THEORY":"SGP4","EPHEMERIS_TYPE":"0","NORAD_CAT_ID":"54826","ECCENTRICITY":"0.00016050","ELEMENT_SET_NO":"999","BSTAR":"-0.00002730100000"}];
